TYVAK-0130              
1 48606U 21041BF  26068.48452211  .00008857  00000+0  35198-3 0  9997
2 48606  52.9967 128.6030 0008953 215.1647 144.8760 15.26049141265157
STARLINK-32948          
1 63123U 25039V   26068.20933691  .00034089  00000+0  12422-2 0  9995
2 63123  43.0006  15.4642 0000260 296.9102  63.1723 15.27588938 57997
